IRIDIUM 26              
1 24903U 97043A   24350.28658375  .00000805  00000+0  26601-3 0  9999
2 24903  86.3982 187.7919 0001969  81.3475 278.7945 14.36849392430807
IRIDIUM 22              
1 24907U 97043E   24350.62389966  .00000687  00000+0  23129-3 0  9998
2 24907  86.3986 191.0283 0001969  88.6454 271.4968 14.35695603430431
DUMMY MASS 1            
1 24925U 97048A   24350.88820764  .00000803  00000+0  87169-4 0  9992
2 24925  86.3364 220.0004 0009073  79.5156 280.7091 14.86678424477896
IRIDIUM 29              
1 24944U 97051A   24348.75818411  .00000660  00000+0  21981-3 0  9996
2 24944  86.3975 221.5933 0002122  89.1092 271.0348 14.36159009426874
IRIDIUM 33              
1 24946U 97051C   24350.91340424  .00000488  00000+0  16570-3 0  9999
2 24946  86.3892 219.9384 0006793 329.9441  30.1364 14.34686810426466
IRIDIUM 28              
1 24948U 97051E   24350.87131059  .00000673  00000+0  22016-3 0  9996
2 24948  86.3981 218.3287 0001838  72.8591 287.2808 14.37108711427514
